[{"OBJECT_NAME":"COSMOS 1897","OBJECT_ID":"1987-096A","EPOCH":"2026-04-26T22:07:59.294784","MEAN_MOTION":1.00322468,"ECCENTRICITY":0.0006565,"INCLINATION":11.0971,"RA_OF_ASC_NODE":327.2408,"ARG_OF_PERICENTER":131.9331,"MEAN_ANOMALY":168.1459,"EPHEMERIS_TYPE":0,"CLASSIFICATION_TYPE":"U","NORAD_CAT_ID":18575,"ELEMENT_SET_NO":999,"REV_AT_EPOCH":14067,"BSTAR":0,"MEAN_MOTION_DOT":-1.92e-6,"MEAN_MOTION_DDOT":0},{"OBJECT_NAME":"SL-12 R/B(2)","OBJECT_ID":"1987-096D","EPOCH":"2026-04-26T23:10:38.777376","MEAN_MOTION":1.00558517,"ECCENTRICITY":0.00217446,"INCLINATION":10.8891,"RA_OF_ASC_NODE":326.5065,"ARG_OF_PERICENTER":249.1351,"MEAN_ANOMALY":324.4406,"EPHEMERIS_TYPE":0,"CLASSIFICATION_TYPE":"U","NORAD_CAT_ID":18578,"ELEMENT_SET_NO":999,"REV_AT_EPOCH":13751,"BSTAR":0,"MEAN_MOTION_DOT":-1.66e-6,"MEAN_MOTION_DDOT":0},{"OBJECT_NAME":"RADUGA 21","OBJECT_ID":"1987-100A","EPOCH":"2026-04-27T11:41:35.192832","MEAN_MOTION":1.00362605,"ECCENTRICITY":0.0001102,"INCLINATION":11.3794,"RA_OF_ASC_NODE":325.6308,"ARG_OF_PERICENTER":316.9398,"MEAN_ANOMALY":3.5426,"EPHEMERIS_TYPE":0,"CLASSIFICATION_TYPE":"U","NORAD_CAT_ID":18631,"ELEMENT_SET_NO":999,"REV_AT_EPOCH":14057,"BSTAR":0,"MEAN_MOTION_DOT":-1.47e-6,"MEAN_MOTION_DDOT":0},{"OBJECT_NAME":"SL-12 R/B(2)","OBJECT_ID":"1987-109D","EPOCH":"2026-04-26T20:19:26.103360","MEAN_MOTION":1.00828032,"ECCENTRICITY":0.00671134,"INCLINATION":10.9568,"RA_OF_ASC_NODE":326.9912,"ARG_OF_PERICENTER":279.5427,"MEAN_ANOMALY":255.1059,"EPHEMERIS_TYPE":0,"CLASSIFICATION_TYPE":"U","NORAD_CAT_ID":18718,"ELEMENT_SET_NO":999,"REV_AT_EPOCH":13154,"BSTAR":0,"MEAN_MOTION_DOT":-8.7e-7,"MEAN_MOTION_DDOT":0},{"OBJECT_NAME":"COSMOS 1922","OBJECT_ID":"1988-013A","EPOCH":"2026-04-25T13:02:11.668704","MEAN_MOTION":2.00614996,"ECCENTRICITY":0.58935491,"INCLINATION":68.736,"RA_OF_ASC_NODE":75.4991,"ARG_OF_PERICENTER":45.1286,"MEAN_ANOMALY":349.654,"EPHEMERIS_TYPE":0,"CLASSIFICATION_TYPE":"U","NORAD_CAT_ID":18881,"ELEMENT_SET_NO":999,"REV_AT_EPOCH":27947,"BSTAR":0,"MEAN_MOTION_DOT":7.43e-6,"MEAN_MOTION_DDOT":0},{"OBJECT_NAME":"SL-6 R/B(2)","OBJECT_ID":"1988-013C","EPOCH":"2026-04-14T12:45:14.643936","MEAN_MOTION":2.04039649,"ECCENTRICITY":0.660195,"INCLINATION":65.0471,"RA_OF_ASC_NODE":298.7582,"ARG_OF_PERICENTER":24.4984,"MEAN_ANOMALY":101.8932,"EPHEMERIS_TYPE":0,"CLASSIFICATION_TYPE":"U","NORAD_CAT_ID":18883,"ELEMENT_SET_NO":999,"REV_AT_EPOCH":28397,"BSTAR":0,"MEAN_MOTION_DOT":-1.01e-6,"MEAN_MOTION_DDOT":0},{"OBJECT_NAME":"STTW-2","OBJECT_ID":"1988-014A","EPOCH":"2026-04-26T23:46:47.489088","MEAN_MOTION":1.00305027,"ECCENTRICITY":0.00036692,"INCLINATION":13.305,"RA_OF_ASC_NODE":340.0598,"ARG_OF_PERICENTER":172.9197,"MEAN_ANOMALY":133.4561,"EPHEMERIS_TYPE":0,"CLASSIFICATION_TYPE":"U","NORAD_CAT_ID":18922,"ELEMENT_SET_NO":999,"REV_AT_EPOCH":13959,"BSTAR":0,"MEAN_MOTION_DOT":-1.26e-6,"MEAN_MOTION_DDOT":0},{"OBJECT_NAME":"SL-6 R/B(2)","OBJECT_ID":"1988-017D","EPOCH":"2026-04-27T05:14:22.032384","MEAN_MOTION":2.10125597,"ECCENTRICITY":0.7077193,"INCLINATION":62.3253,"RA_OF_ASC_NODE":202.2687,"ARG_OF_PERICENTER":260.8399,"MEAN_ANOMALY":19.991,"EPHEMERIS_TYPE":0,"CLASSIFICATION_TYPE":"U","NORAD_CAT_ID":18949,"ELEMENT_SET_NO":999,"REV_AT_EPOCH":27180,"BSTAR":0,"MEAN_MOTION_DOT":-2.36e-6,"MEAN_MOTION_DDOT":0},{"OBJECT_NAME":"SPACENET 3R","OBJECT_ID":"1988-018A","EPOCH":"2026-04-26T02:57:38.532096","MEAN_MOTION":0.99658905,"ECCENTRICITY":0.00036944,"INCLINATION":14.6901,"RA_OF_ASC_NODE":0.0827,"ARG_OF_PERICENTER":296.2487,"MEAN_ANOMALY":246.9892,"EPHEMERIS_TYPE":0,"CLASSIFICATION_TYPE":"U","NORAD_CAT_ID":18951,"ELEMENT_SET_NO":999,"REV_AT_EPOCH":12409,"BSTAR":0,"MEAN_MOTION_DOT":-2.12e-6,"MEAN_MOTION_DDOT":0},{"OBJECT_NAME":"COSMOS 1940","OBJECT_ID":"1988-034A","EPOCH":"2026-04-27T03:10:38.767296","MEAN_MOTION":1.00675624,"ECCENTRICITY":0.0021565,"INCLINATION":11.0387,"RA_OF_ASC_NODE":326.9151,"ARG_OF_PERICENTER":297.0753,"MEAN_ANOMALY":65.0019,"EPHEMERIS_TYPE":0,"CLASSIFICATION_TYPE":"U","NORAD_CAT_ID":19073,"ELEMENT_SET_NO":999,"REV_AT_EPOCH":12084,"BSTAR":0,"MEAN_MOTION_DOT":-1.34e-6,"MEAN_MOTION_DDOT":0},{"OBJECT_NAME":"SL-12 R/B(2)","OBJECT_ID":"1988-034D","EPOCH":"2026-04-27T07:28:01.588800","MEAN_MOTION":1.0010199,"ECCENTRICITY":0.0022123,"INCLINATION":11.3382,"RA_OF_ASC_NODE":327.9154,"ARG_OF_PERICENTER":189.6126,"MEAN_ANOMALY":16.3266,"EPHEMERIS_TYPE":0,"CLASSIFICATION_TYPE":"U","NORAD_CAT_ID":19076,"ELEMENT_SET_NO":999,"REV_AT_EPOCH":13859,"BSTAR":0,"MEAN_MOTION_DOT":8.5e-7,"MEAN_MOTION_DDOT":0},{"OBJECT_NAME":"SL-12 R/B(2)","OBJECT_ID":"1988-036E","EPOCH":"2026-04-27T11:12:07.521408","MEAN_MOTION":1.01111436,"ECCENTRICITY":0.002064,"INCLINATION":10.2358,"RA_OF_ASC_NODE":322.9967,"ARG_OF_PERICENTER":183.9407,"MEAN_ANOMALY":40.0178,"EPHEMERIS_TYPE":0,"CLASSIFICATION_TYPE":"U","NORAD_CAT_ID":19094,"ELEMENT_SET_NO":999,"REV_AT_EPOCH":12131,"BSTAR":0,"MEAN_MOTION_DOT":9.0e-8,"MEAN_MOTION_DDOT":0},{"OBJECT_NAME":"INSAT-1C","OBJECT_ID":"1988-063A","EPOCH":"2026-04-26T22:07:59.712096","MEAN_MOTION":1.00231141,"ECCENTRICITY":0.0006679,"INCLINATION":11.3926,"RA_OF_ASC_NODE":328.123,"ARG_OF_PERICENTER":127.6258,"MEAN_ANOMALY":172.3573,"EPHEMERIS_TYPE":0,"CLASSIFICATION_TYPE":"U","NORAD_CAT_ID":19330,"ELEMENT_SET_NO":999,"REV_AT_EPOCH":11982,"BSTAR":0,"MEAN_MOTION_DOT":-1.8e-6,"MEAN_MOTION_DDOT":0},{"OBJECT_NAME":"COSMOS 1961","OBJECT_ID":"1988-066A","EPOCH":"2026-04-26T22:29:16.202112","MEAN_MOTION":1.0026985,"ECCENTRICITY":0.0002641,"INCLINATION":11.5302,"RA_OF_ASC_NODE":330.0601,"ARG_OF_PERICENTER":146.659,"MEAN_ANOMALY":155.7119,"EPHEMERIS_TYPE":0,"CLASSIFICATION_TYPE":"U","NORAD_CAT_ID":19344,"ELEMENT_SET_NO":999,"REV_AT_EPOCH":13849,"BSTAR":0,"MEAN_MOTION_DOT":-1.68e-6,"MEAN_MOTION_DDOT":0},{"OBJECT_NAME":"GORIZONT 16","OBJECT_ID":"1988-071A","EPOCH":"2026-04-27T10:35:28.600800","MEAN_MOTION":0.99974599,"ECCENTRICITY":0.001239,"INCLINATION":11.5961,"RA_OF_ASC_NODE":330.1554,"ARG_OF_PERICENTER":81.3389,"MEAN_ANOMALY":260.3487,"EPHEMERIS_TYPE":0,"CLASSIFICATION_TYPE":"U","NORAD_CAT_ID":19397,"ELEMENT_SET_NO":999,"REV_AT_EPOCH":13772,"BSTAR":0,"MEAN_MOTION_DOT":-2.92e-6,"MEAN_MOTION_DDOT":0},{"OBJECT_NAME":"SL-12 R/B(2)","OBJECT_ID":"1988-071D","EPOCH":"2026-04-26T22:38:02.207040","MEAN_MOTION":1.00561444,"ECCENTRICITY":0.0018647,"INCLINATION":11.3217,"RA_OF_ASC_NODE":329.395,"ARG_OF_PERICENTER":240.6318,"MEAN_ANOMALY":64.8992,"EPHEMERIS_TYPE":0,"CLASSIFICATION_TYPE":"U","NORAD_CAT_ID":19400,"ELEMENT_SET_NO":999,"REV_AT_EPOCH":13218,"BSTAR":0,"MEAN_MOTION_DOT":-2.44e-6,"MEAN_MOTION_DDOT":0},{"OBJECT_NAME":"USA 31","OBJECT_ID":"1988-077A","EPOCH":"2026-04-27T00:06:50.892480","MEAN_MOTION":2.00738864,"ECCENTRICITY":0.73052747,"INCLINATION":27.565,"RA_OF_ASC_NODE":25.4775,"ARG_OF_PERICENTER":156.0009,"MEAN_ANOMALY":271.6379,"EPHEMERIS_TYPE":0,"CLASSIFICATION_TYPE":"U","NORAD_CAT_ID":19458,"ELEMENT_SET_NO":999,"REV_AT_EPOCH":1429,"BSTAR":0.010490238,"MEAN_MOTION_DOT":-4.2e-7,"MEAN_MOTION_DDOT":0}]
