COSMOS 1897             
1 18575U 87096A   26116.92221406 -.00000192  00000+0  00000+0 0  9999
2 18575  11.0971 327.2408 0006565 131.9331 168.1459  1.00322468140674
SL-12 R/B(2)            
1 18578U 87096D   26116.96572659 -.00000166  00000+0  00000+0 0  9996
2 18578  10.8891 326.5065 0021744 249.1351 324.4406  1.00558517137510
RADUGA 21               
1 18631U 87100A   26117.48721288 -.00000147  00000+0  00000+0 0  9993
2 18631  11.3794 325.6308 0001102 316.9398   3.5426  1.00362605140576
SL-12 R/B(2)            
1 18718U 87109D   26116.84682990 -.00000087  00000+0  00000+0 0  9996
2 18718  10.9568 326.9912 0067113 279.5427 255.1059  1.00828032131547
COSMOS 1922             
1 18881U 88013A   26115.54319061  .00000743  00000+0  00000+0 0  9992
2 18881  68.7360  75.4991 5893549  45.1286 349.6540  2.00614996279479
SL-6 R/B(2)             
1 18883U 88013C   26104.53141949 -.00000101  00000+0  00000+0 0  9998
2 18883  65.0471 298.7582 6601950  24.4984 101.8932  2.04039649283972
STTW-2                  
1 18922U 88014A   26116.99082742 -.00000126  00000+0  00000+0 0  9998
2 18922  13.3050 340.0598 0003669 172.9197 133.4561  1.00305027139593
SL-6 R/B(2)             
1 18949U 88017D   26117.21831056 -.00000236  00000+0  00000+0 0  9998
2 18949  62.3253 202.2687 7077193 260.8399  19.9910  2.10125597271801
SPACENET 3R             
1 18951U 88018A   26116.12336264 -.00000212  00000+0  00000+0 0  9996
2 18951  14.6901   0.0827 0003694 296.2487 246.9892  0.99658905124091
COSMOS 1940             
1 19073U 88034A   26117.13239314 -.00000134  00000+0  00000+0 0  9993
2 19073  11.0387 326.9151 0021565 297.0753  65.0019  1.00675624120848
SL-12 R/B(2)            
1 19076U 88034D   26117.31112950  .00000085  00000+0  00000+0 0  9996
2 19076  11.3382 327.9154 0022123 189.6126  16.3266  1.00101990138598
SL-12 R/B(2)            
1 19094U 88036E   26117.46675372  .00000009  00000+0  00000+0 0  9992
2 19094  10.2358 322.9967 0020640 183.9407  40.0178  1.01111436121312
INSAT-1C                
1 19330U 88063A   26116.92221889 -.00000180  00000+0  00000+0 0  9996
2 19330  11.3926 328.1230 0006679 127.6258 172.3573  1.00231141119820
COSMOS 1961             
1 19344U 88066A   26116.93699308 -.00000168  00000+0  00000+0 0  9996
2 19344  11.5302 330.0601 0002641 146.6590 155.7119  1.00269850138497
GORIZONT 16             
1 19397U 88071A   26117.44130325 -.00000292  00000+0  00000+0 0  9994
2 19397  11.5961 330.1554 0012390  81.3389 260.3487  0.99974599137723
SL-12 R/B(2)            
1 19400U 88071D   26116.94308110 -.00000244  00000+0  00000+0 0  9999
2 19400  11.3217 329.3950 0018647 240.6318  64.8992  1.00561444132180
USA 31                  
1 19458U 88077A   26117.00475570 -.00000042  00000+0  10490-1 0  9993
2 19458  27.5650  25.4775 7305274 156.0009 271.6379  2.00738864 14292
